[{"OBJECT_NAME":"STARLINK-3107","OBJECT_ID":"2021-082AT","EPOCH":"2026-03-09T21:59:27.140640","MEAN_MOTION":15.10504087,"ECCENTRICITY":0.00073375,"INCLINATION":69.9932,"RA_OF_ASC_NODE":287.3824,"ARG_OF_PERICENTER":250.2407,"MEAN_ANOMALY":109.7967,"EPHEMERIS_TYPE":0,"CLASSIFICATION_TYPE":"U","NORAD_CAT_ID":49171,"ELEMENT_SET_NO":999,"REV_AT_EPOCH":24733,"BSTAR":0.001517345,"MEAN_MOTION_DOT":0.00025048,"MEAN_MOTION_DDOT":0},{"OBJECT_NAME":"STARLINK-4594","OBJECT_ID":"2022-104BC","EPOCH":"2026-03-09T17:03:07.355520","MEAN_MOTION":15.08838209,"ECCENTRICITY":0.00012271,"INCLINATION":53.2169,"RA_OF_ASC_NODE":223.6608,"ARG_OF_PERICENTER":83.5338,"MEAN_ANOMALY":276.5794,"EPHEMERIS_TYPE":0,"CLASSIFICATION_TYPE":"U","NORAD_CAT_ID":53638,"ELEMENT_SET_NO":999,"REV_AT_EPOCH":19623,"BSTAR":2.762886e-6,"MEAN_MOTION_DOT":-2.44e-6,"MEAN_MOTION_DDOT":0}]
